ORBCOMM FM05 [-]        
1 25117U 97084F   23310.26093632  .00005252  00000+0  16390-2 0  9998
2 25117  45.0161 305.4343 0001571 205.1208 154.9565 14.41675770356448
ORBCOMM FM06 [+]        
1 25118U 97084G   23310.45809481  .00005672  00000+0  17679-2 0  9994
2 25118  45.0154 304.6601 0001768 238.0109 285.7456 14.41630220356445
ORBCOMM FM07 [-]        
1 25119U 97084H   23311.37934483  .00005020  00000+0  15715-2 0  9994
2 25119  45.0147 300.7157 0001527 176.6388 183.4472 14.41581825356594
ORBCOMM FM03 [-]        
1 25158U 98007B   23310.88583660  .00003929  00000+0  15064-2 0  9998
2 25158 107.9776   9.9012 0048902 197.8395 162.1027 14.31442629339770
ORBCOMM FM04 [+]        
1 25159U 98007C   23310.90794956  .00003565  00000+0  13673-2 0  9994
2 25159 107.9756  12.7589 0044322 196.0359 163.9378 14.31710414339940
ORBCOMM FM17 [-]        
1 25413U 98046A   23311.50786218  .00002189  00000+0  85192-3 0  9996
2 25413  44.9936 145.0443 0002263 141.0797 219.0212 14.32495967319005
ORBCOMM FM18 [-]        
1 25414U 98046B   23310.66051514  .00004373  00000+0  15685-2 0  9993
2 25414  44.9935  79.9024 0005428 201.5726 158.4893 14.35038606319619
ORBCOMM FM19 [+]        
1 25415U 98046C   23311.12670278  .00003972  00000+0  14332-2 0  9992
2 25415  44.9939  78.8784 0004335 198.1597 332.0177 14.34903763319842
